GLOBAL-2                
1 43812U 18099BG  26068.69955396  .00003970  00000+0  26145-3 0  9998
2 43812  97.3697 109.3280 0007454 127.1924 232.9986 15.08046936396919
STARLINK-3880           
1 52334U 22045D   26068.64384784 -.00000188  00000+0  62618-5 0  9991
2 52334  53.2189 209.3299 0001472  84.4342 275.6818 15.08839351215626
